OPTICUBE 04             
1 41851U 16067D   18190.78840986  .00000506  00000-0  49648-4 0  9994
2 41851  97.9238 279.1980 0010487  91.4471 268.7951 14.96679062 90479
AEROCUBE 8D             
1 41852U 16067E   18191.22902674 -.00000251  00000-0 -16766-4 0  9992
2 41852  97.9251 279.4860 0010981  88.9312 271.3167 14.96509428 90522
AEROCUBE 8C             
1 41853U 16067F   18190.77568867  .00000173  00000-0  20577-4 0  9990
2 41853  97.9247 278.9881 0011411  92.2635 267.9892 14.96471354 90454
PROMETHEUS 2-1          
1 41854U 16067G   18190.78052421  .00000443  00000-0  44169-4 0  9999
2 41854  97.9253 279.0073 0011810  92.3305 267.9269 14.96583070 90452
PROMETHEUS 2-3          
1 41855U 16067H   18191.18435102  .00000583  00000-0  56508-4 0  9991
2 41855  97.9256 279.4211 0012065  91.5681 268.6922 14.96582009 90517
ITF-2                   
1 41932U 98067KU  18190.54500834  .00023501  00000-0  14038-3 0  9997
2 41932  51.6306 225.4896 0003969 325.3753  34.6989 15.77759612 84295
WASEDA-SAT3             
1 41933U 98067KV  18190.92065862  .00055961  00000-0  22525-3 0  9992
2 41933  51.6316 215.0754 0004385 351.2084   8.8843 15.85836485 84467
AOBA-VELOX 3            
1 41935U 98067KX  18190.49856413  .00038303  00000-0  18207-3 0  9999
2 41935  51.6338 220.6157 0004230 338.4481  21.6343 15.82502774 84454
INS-1B                  
1 41954U 17008G   18190.92147100  .00000994  00000-0  45190-4 0  9997
2 41954  97.4446 254.6948 0007698 274.1755  85.8602 15.23067339 77460
BGUSAT                  
1 41999U 17008BD  18190.73938681  .00001598  00000-0  67550-4 0  9992
2 41999  97.4493 255.6401 0006792 296.8109  63.2433 15.24684718 76866
DIDO-2                  
1 42000U 17008BE  18190.72913110  .00000729  00000-0  33793-4 0  9992
2 42000  97.4464 254.9471 0007107 298.4826  61.5695 15.23242027 76832
PEASSS                  
1 42015U 17008BV  18190.76115764  .00000867  00000-0  38690-4 0  9995
2 42015  97.4462 255.4626 0005118 309.8169  50.2617 15.24061583 77355
AL-FARABI 1             
1 42016U 17008BW  18190.61629773  .00001136  00000-0  49159-4 0  9992
2 42016  97.4470 255.5328 0004989 310.9785  49.1020 15.24487967 77462
NAYIF-1 (EO-88)         
1 42017U 17008BX  18190.80710475  .00001160  00000-0  50090-4 0  9997
2 42017  97.4467 255.7293 0004967 310.5140  49.5664 15.24512943 77516
HAVELSAT                
1 42700U 98067LH  18191.16305654  .00022503  00000-0  16977-3 0  9998
2 42700  51.6338 237.1661 0005014 348.1176  11.9703 15.72379418 65635
CXBN-2                  
1 42704U 98067LM  18191.12735612  .00021297  00000-0  16406-3 0  9995
2 42704  51.6345 238.4469 0002011 318.0996  41.9848 15.71932510 65536
ICECUBE                 
1 42705U 98067LN  18191.13628724  .00049538  00000-0  23186-3 0  9993
2 42705  51.6436 228.8287 0003546 359.7889   0.3111 15.82719541 65728
PHOENIX                 
1 42706U 98067LP  18191.15407152  .00014763  00000-0  12464-3 0  9995
2 42706  51.6348 239.3742 0001500 329.5420  30.5490 15.70034912 65519
X-CUBESAT               
1 42707U 98067LQ  18191.13512657  .00024962  00000-0  18270-3 0  9994
2 42707  51.6307 236.9039 0002134 340.2912  19.8003 15.73037132 65539
QBEE50-LTU-OC           
1 42708U 98067LR  18191.15888431  .00022759  00000-0  17381-3 0  9997
2 42708  51.6349 237.8865 0002155 339.7237  20.3675 15.72091607 65481
ALTAIR PATHFINDER       
1 42711U 98067LS  18191.18442995  .00009161  00000-0  96968-4 0  9996
2 42711  51.6357 247.1011 0003280 280.6737  79.3889 15.64968100 65078
SHARC                   
1 42712U 98067LT  18191.18652618  .00016289  00000-0  16634-3 0  9992
2 42712  51.6372 248.6763 0002629 307.8550  52.2207 15.65215627 65295
ZA-AEROSAT              
1 42713U 98067LU  18190.62904200  .00012530  00000-0  11267-3 0  9990
2 42713  51.6342 244.8568 0001832 290.6816  69.3984 15.68661009 65050
LINK                    
1 42714U 98067LV  18191.13047176  .00067736  00000-0  30369-3 0  9990
2 42714  51.6227 228.4563 0004152 353.8040   6.2911 15.83503578 65429
CSUNSAT 1               
1 42715U 98067LW  18191.14840769  .00016571  00000-0  14310-3 0  9990
2 42715  51.6346 241.5967 0003175 283.5019  76.5624 15.69373557 65141
SPACECUBE               
1 42717U 98067LY  18191.12301851  .00021587  00000-0  16595-3 0  9994
2 42717  51.6319 238.3670 0003841 349.0601  11.0313 15.71967031 64555
HOOPOE                  
1 42718U 98067LZ  18190.60625290  .00027809  00000-0  18661-3 0  9992
2 42718  51.6319 237.9151 0004422 347.7145  12.3746 15.74991037 64515
CHALLENGER              
1 42721U 98067MA  18191.09693977  .00159527  20911-4  43091-3 0  9992
2 42721  51.6238 222.1650 0008667   5.5361 354.5741 15.93917603 64461
NJUST-1                 
1 42722U 98067MB  18191.14998803  .00013785  00000-0  12843-3 0  9994
2 42722  51.6349 243.8616 0005655 327.1054  32.9590 15.67668956 64186
UNSW-ECO                
1 42723U 98067MC  18191.16609964  .00031641  00000-0  20319-3 0  9992
2 42723  51.6364 234.9433 0005696 339.0714  21.0052 15.75921037 64286
LILACSAT-1              
1 42725U 98067ME  18191.15375930  .00018848  00000-0  15538-3 0  9997
2 42725  51.6352 240.8742 0004931 333.1036  26.9705 15.70388449 64128
NSIGHT-1                
1 42726U 98067MF  18191.15816405  .00006853  00000-0  83340-4 0  9995
2 42726  51.6382 251.4912 0005166 325.6561  34.4099 15.61845882 63992
SNUSAT-1                
1 42727U 98067MG  18191.16593976  .00018299  00000-0  15119-3 0  9997
2 42727  51.6329 240.8977 0005713 298.5589  61.4833 15.70354056 64099
I-INSPIRE II            
1 42731U 98067ML  18191.15034629  .00033589  00000-0  20972-3 0  9998
2 42731  51.6355 234.0036 0004386 304.7968  55.2619 15.76539124 64078
POLYITAN-2-SAU          
1 42732U 98067MM  18191.14363711  .00025055  00000-0  18488-3 0  9993
2 42732  51.6338 237.7546 0004703 293.2332  66.8171 15.72834196 64025
SNUSAT-1B               
1 42733U 98067MN  18191.12665514  .00020250  00000-0  16139-3 0  9991
2 42733  51.6340 239.9134 0005004 291.7691  68.2774 15.71146432 63990
EXALTA-1                
1 42734U 98067MP  18191.12169360  .00035773  00000-0  21452-3 0  9990
2 42734  51.6273 233.7637 0006584 326.0147  34.0431 15.77405995 64022
BEEAGLESAT              
1 42736U 98067MR  18190.57170325  .00015361  00000-0  13183-3 0  9996
2 42736  51.6340 244.4594 0005894 323.8594  36.2004 15.69585111 63944
UCLSAT                  
1 42765U 17036A   18191.15585436  .00000924  00000-0  43582-4 0  9999
2 42765  97.3992 250.6331 0011797   4.9217 355.2133 15.21908496 58205
LITUANICASAT-2          
1 42768U 17036D   18190.75969867  .00001522  00000-0  70653-4 0  9995
2 42768  97.4010 249.8332 0015322 353.9811   6.1238 15.21462173 57996
AALTO-1                 
1 42775U 17036L   18190.73342916  .00000575  00000-0  29183-4 0  9990
2 42775  97.3986 249.6669 0013851 352.8069   7.2966 15.20787596 57925
URSA MAIOR              
1 42776U 17036M   18190.91620222  .00000650  00000-0  32480-4 0  9998
2 42776  97.3993 249.9020 0013683 352.4309   7.6718 15.20869735 57952
COMPASS 2               
1 42777U 17036N   18190.76292204  .00001196  00000-0  55674-4 0  9993
2 42777  97.4014 250.1755 0012663 357.0521   3.0638 15.21805969 57941
DIAMOND RED             
1 42783U 17036U   18191.16076697  .00000786  00000-0  37948-4 0  9999
2 42783  97.3994 250.4814 0012383   4.4956 355.6389 15.21508178 58006
PEGASUS                 
1 42784U 17036V   18190.86739354  .00000885  00000-0  42075-4 0  9999
2 42784  97.3995 250.2699 0012335   5.5278 354.6092 15.21715364 57964
DIAMOND GREEN           
1 42785U 17036W   18190.69925484  .00000772  00000-0  37352-4 0  9999
2 42785  97.3996 250.0415 0012347   6.7609 353.3791 15.21509938 57920
DIAMOND BLUE            
1 42786U 17036X   18191.15876668  .00000758  00000-0  36705-4 0  9996
2 42786  97.3996 250.4932 0012141   5.5599 354.5770 15.21509808 57999
NUDTSAT                 
1 42787U 17036Y   18190.90841613  .00001318  00000-0  60151-4 0  9996
2 42787  97.4004 250.5337 0011823   5.3652 354.7709 15.22313390 57821
SUCHAI                  
1 42788U 17036Z   18190.75483921  .00001029  00000-0  48070-4 0  9999
2 42788  97.3998 250.2672 0011961   6.0619 354.0760 15.21992554 58023
SKCUBE                  
1 42789U 17036AA  18190.68909714  .00000968  00000-0  45455-4 0  9990
2 42789  97.3995 250.1951 0011794   6.3863 353.7521 15.21951066 57931
VZLUSAT-1               
1 42790U 17036AB  18190.89741678  .00001263  00000-0  57747-4 0  9994
2 42790  97.3999 250.5303 0011421   6.1296 354.0078 15.22333306 57974
ROBUSTA-1B              
1 42792U 17036AD  18190.85287645  .00001036  00000-0  48216-4 0  9990
2 42792  97.3994 250.4233 0011396   7.1089 353.0307 15.22096164 57976
CICERO 6                
1 42793U 17036AE  18190.91539089  .00000682  00000-0  32963-4 0  9998
2 42793  97.3986 250.4732 0010608   8.7726 351.3694 15.21919791 58051
D-SAT                   
1 42794U 17036AF  18191.13158693  .00000080  00000-0  12618-4 0  9999
2 42794  97.5896 244.9210 0126396 205.2590 154.2415 14.90884723 57149
TOKI                    
1 42820U 98067MU  18191.16441794  .00016447  00000-0  14598-3 0  9994
2 42820  51.6341 243.9273 0002191 281.2613  78.8138 15.68708984 57467
MAZAALAI (NUMSAT-1)     
1 42822U 98067MW  18190.62882535  .00014420  00000-0  13033-3 0  9990
2 42822  51.6345 247.1071 0002295 283.0571  77.0169 15.68386112 57351
BRAC ONNESHA            
1 42823U 98067MX  18190.62340947  .00014883  00000-0  13373-3 0  9997
2 42823  51.6351 247.0902 0004771 290.0012  70.0471 15.68492442 57353
NIGERIAEDUSAT-1         
1 42824U 98067MY  18190.58693340  .00014403  00000-0  13079-3 0  9992
2 42824  51.6355 247.6144 0004712 289.9651  70.0838 15.68265643 57339
CORVUS BC2              
1 42846U 17042X   18191.21269195  .00000281  00000-0  33112-4 0  9998
2 42846  97.5955  93.2536 0011005 115.6375 244.5982 14.91830029 53806
